{"type": "FeatureCollection", "features": [ {"type": "Feature", "properties": {"norad_id": 30345, "name": "FENGYUN 1C DEB", "group": "fengyun-1c-debris", "lat": 9.258652970906429, "lon": -117.32855756463299, "alt_km": 742.9802618584581, "timestamp": "2025-12-27T04:40:45.781350+00:00", "meta": {"OBJECT_NAME": "FENGYUN 1C DEB", "OBJECT_ID": "1999-025ABG", "EPOCH": "2025-12-26T14:33:58.516128", "MEAN_MOTION": 14.41834589, "ECCENTRICITY": 0.0018188, "INCLINATION": 98.9195, "RA_OF_ASC_NODE": 60.5905, "ARG_OF_PERICENTER": 203.5465, "MEAN_ANOMALY": 156.4892, "EPHEMERIS_TYPE": 0, "CLASSIFICATION_TYPE": "U", "NORAD_CAT_ID": 30345, "ELEMENT_SET_NO": 999, "REV_AT_EPOCH": 97973, "BSTAR": 0.0020976, "MEAN_MOTION_DOT": 6.83e-05, "MEAN_MOTION_DDOT": 0}, "tle": {"line1": "1 30345U 99025ABG 25360.60692727  .00006830  00000+0  20976-2 0  9997", "line2": "2 30345  98.9195  60.5905 0018188 203.5465 156.4892 14.41834589979731"}}, "geometry": {"type": "Point", "coordinates": [-117.32855756463299, 9.258652970906429]}}, {"type": "Feature", "properties": {"norad_id": 30346, "name": "FENGYUN 1C DEB", "group": "fengyun-1c-debris", "lat": -17.442869248352498, "lon": -84.62805590535407, "alt_km": 814.4595286813756, "timestamp": "2025-12-27T04:40:45.781361+00:00", "meta": {"OBJECT_NAME": "FENGYUN 1C DEB", "OBJECT_ID": "1999-025ABH", "EPOCH": "2025-12-25T05:08:23.271072", "MEAN_MOTION": 14.34015409, "ECCENTRICITY": 0.0055061, "INCLINATION": 98.8077, "RA_OF_ASC_NODE": 96.1475, "ARG_OF_PERICENTER": 346.13, "MEAN_ANOMALY": 71.6635, "EPHEMERIS_TYPE": 0, "CLASSIFICATION_TYPE": "U", "NORAD_CAT_ID": 30346, "ELEMENT_SET_NO": 999, "REV_AT_EPOCH": 97592, "BSTAR": 0.0019443, "MEAN_MOTION_DOT": 5.48e-05, "MEAN_MOTION_DDOT": 0}, "tle": {"line1": "1 30346U 99025ABH 25359.21415823  .00005480  00000+0  19443-2 0  9990", "line2": "2 30346  98.8077  96.1475 0055061 346.1300  71.6635 14.34015409975924"}}, "geometry": {"type": "Point", "coordinates": [-84.62805590535407, -17.442869248352498]}}, {"type": "Feature", "properties": {"norad_id": 30347, "name": "FENGYUN 1C DEB", "group": "fengyun-1c-debris", "lat": -64.87049667768105, "lon": -14.598776771932659, "alt_km": 957.3736247348525, "timestamp": "2025-12-27T04:40:45.781371+00:00", "meta": {"OBJECT_NAME": "FENGYUN 1C DEB", "OBJECT_ID": "1999-025ABJ", "EPOCH": "2025-12-26T23:07:26.529600", "MEAN_MOTION": 13.92775318, "ECCENTRICITY": 0.01499514, "INCLINATION": 98.3766, "RA_OF_ASC_NODE": 183.4993, "ARG_OF_PERICENTER": 354.2335, "MEAN_ANOMALY": 173.625, "EPHEMERIS_TYPE": 0, "CLASSIFICATION_TYPE": "U", "NORAD_CAT_ID": 30347, "ELEMENT_SET_NO": 999, "REV_AT_EPOCH": 96158, "BSTAR": 0.00020384504, "MEAN_MOTION_DOT": 2.51e-06, "MEAN_MOTION_DDOT": 0}, "tle": {"line1": "1 30347U 99025ABJ 25360.96350150  .00000251  00000+0  20385-3 0  9995", "line2": "2 30347  98.3766 183.4993 0149951 354.2335 173.6250 13.92775318961588"}}, "geometry": {"type": "Point", "coordinates": [-14.598776771932659, -64.87049667768105]}}, {"type": "Feature", "properties": {"norad_id": 30348, "name": "FENGYUN 1C DEB", "group": "fengyun-1c-debris", "lat": -13.709796443127289, "lon": -85.84568308740842, "alt_km": 787.602428909403, "timestamp": "2025-12-27T04:40:45.781381+00:00", "meta": {"OBJECT_NAME": "FENGYUN 1C DEB", "OBJECT_ID": "1999-025ABK", "EPOCH": "2025-12-26T06:18:28.823904", "MEAN_MOTION": 14.35238963, "ECCENTRICITY": 0.0017325, "INCLINATION": 98.8628, "RA_OF_ASC_NODE": 95.379, "ARG_OF_PERICENTER": 332.0286, "MEAN_ANOMALY": 88.3539, "EPHEMERIS_TYPE": 0, "CLASSIFICATION_TYPE": "U", "NORAD_CAT_ID": 30348, "ELEMENT_SET_NO": 999, "REV_AT_EPOCH": 97728, "BSTAR": 0.0019396, "MEAN_MOTION_DOT": 5.517e-05, "MEAN_MOTION_DDOT": 0}, "tle": {"line1": "1 30348U 99025ABK 25360.26283361  .00005517  00000+0  19396-2 0  9997", "line2": "2 30348  98.8628  95.3790 0017325 332.0286  88.3539 14.35238963977289"}}, "geometry": {"type": "Point", "coordinates": [-85.84568308740842, -13.709796443127289]}}, {"type": "Feature", "properties": {"norad_id": 30349, "name": "FENGYUN 1C DEB", "group": "fengyun-1c-debris", "lat": 3.0330722494715547, "lon": -37.45118906615036, "alt_km": 802.8455998982281, "timestamp": "2025-12-27T04:40:45.781391+00:00", "meta": {"OBJECT_NAME": "FENGYUN 1C DEB", "OBJECT_ID": "1999-025ABL", "EPOCH": "2025-12-26T10:30:39.851136", "MEAN_MOTION": 14.1120867, "ECCENTRICITY": 0.0088764, "INCLINATION": 98.586, "RA_OF_ASC_NODE": 322.2835, "ARG_OF_PERICENTER": 333.7821, "MEAN_ANOMALY": 145.1293, "EPHEMERIS_TYPE": 0, "CLASSIFICATION_TYPE": "U", "NORAD_CAT_ID": 30349, "ELEMENT_SET_NO": 999, "REV_AT_EPOCH": 96424, "BSTAR": 0.0022509, "MEAN_MOTION_DOT": 4.172e-05, "MEAN_MOTION_DDOT": 0}, "tle": {"line1": "1 30349U 99025ABL 25360.43796124  .00004172  00000+0  22509-2 0  9999", "line2": "2 30349  98.5860 322.2835 0088764 333.7821 145.1293 14.11208670964242"}}, "geometry": {"type": "Point", "coordinates": [-37.45118906615036, 3.0330722494715547]}}, {"type": "Feature", "properties": {"norad_id": 30350, "name": "FENGYUN 1C DEB", "group": "fengyun-1c-debris", "lat": -81.54318708205474, "lon": -75.56002421739144, "alt_km": 800.3868893615108, "timestamp": "2025-12-27T04:40:45.781401+00:00", "meta": {"OBJECT_NAME": "FENGYUN 1C DEB", "OBJECT_ID": "1999-025ABM", "EPOCH": "2025-12-26T12:04:05.172096", "MEAN_MOTION": 13.82840733, "ECCENTRICITY": 0.0219311, "INCLINATION": 98.0925, "RA_OF_ASC_NODE": 176.9648, "ARG_OF_PERICENTER": 270.6938, "MEAN_ANOMALY": 153.2004, "EPHEMERIS_TYPE": 0, "CLASSIFICATION_TYPE": "U", "NORAD_CAT_ID": 30350, "ELEMENT_SET_NO": 999, "REV_AT_EPOCH": 95172, "BSTAR": 0.00083955, "MEAN_MOTION_DOT": 1.063e-05, "MEAN_MOTION_DDOT": 0}, "tle": {"line1": "1 30350U 99025ABM 25360.50283764  .00001063  00000+0  83955-3 0  9999", "line2": "2 30350  98.0925 176.9648 0219311 270.6938 153.2004 13.82840733951727"}}, "geometry": {"type": "Point", "coordinates": [-75.56002421739144, -81.54318708205474]}}, {"type": "Feature", "properties": {"norad_id": 30352, "name": "FENGYUN 1C DEB", "group": "fengyun-1c-debris", "lat": 27.201378192172736, "lon": 17.29428186363803, "alt_km": 873.3556228601601, "timestamp": "2025-12-27T04:40:45.781411+00:00", "meta": {"OBJECT_NAME": "FENGYUN 1C DEB", "OBJECT_ID": "1999-025ABP", "EPOCH": "2025-12-26T01:22:28.999776", "MEAN_MOTION": 14.07594157, "ECCENTRICITY": 0.00275593, "INCLINATION": 98.7636, "RA_OF_ASC_NODE": 20.7379, "ARG_OF_PERICENTER": 280.4922, "MEAN_ANOMALY": 104.9819, "EPHEMERIS_TYPE": 0, "CLASSIFICATION_TYPE": "U", "NORAD_CAT_ID": 30352, "ELEMENT_SET_NO": 999, "REV_AT_EPOCH": 97098, "BSTAR": 0.0002415181, "MEAN_MOTION_DOT": 3.66e-06, "MEAN_MOTION_DDOT": 0}, "tle": {"line1": "1 30352U 99025ABP 25360.05728009  .00000366  00000+0  24152-3 0  9996", "line2": "2 30352  98.7636  20.7379 0027559 280.4922 104.9819 14.07594157970985"}}, "geometry": {"type": "Point", "coordinates": [17.29428186363803, 27.201378192172736]}}, {"type": "Feature", "properties": {"norad_id": 30355, "name": "FENGYUN 1C DEB", "group": "fengyun-1c-debris", "lat": -61.14210306455412, "lon": 169.1763381508042, "alt_km": 801.7025374066052, "timestamp": "2025-12-27T04:40:45.781422+00:00", "meta": {"OBJECT_NAME": "FENGYUN 1C DEB", "OBJECT_ID": "1999-025ABS", "EPOCH": "2025-12-26T19:40:05.079072", "MEAN_MOTION": 14.18856515, "ECCENTRICITY": 0.00529587, "INCLINATION": 98.5889, "RA_OF_ASC_NODE": 4.7302, "ARG_OF_PERICENTER": 268.32, "MEAN_ANOMALY": 217.4414, "EPHEMERIS_TYPE": 0, "CLASSIFICATION_TYPE": "U", "NORAD_CAT_ID": 30355, "ELEMENT_SET_NO": 999, "REV_AT_EPOCH": 97550, "BSTAR": 0.00062347948, "MEAN_MOTION_DOT": 1.273e-05, "MEAN_MOTION_DDOT": 0}, "tle": {"line1": "1 30355U 99025ABS 25360.81950323  .00001273  00000+0  62348-3 0  9996", "line2": "2 30355  98.5889   4.7302 0052958 268.3200 217.4414 14.18856515975504"}}, "geometry": {"type": "Point", "coordinates": [169.1763381508042, -61.14210306455412]}}, {"type": "Feature", "properties": {"norad_id": 30356, "name": "FENGYUN 1C DEB", "group": "fengyun-1c-debris", "lat": 75.1518464518141, "lon": -148.8042754702447, "alt_km": 872.5050573207864, "timestamp": "2025-12-27T04:40:45.781432+00:00", "meta": {"OBJECT_NAME": "FENGYUN 1C DEB", "OBJECT_ID": "1999-025ABT", "EPOCH": "2025-12-26T23:21:28.463904", "MEAN_MOTION": 14.13071408, "ECCENTRICITY": 0.00520395, "INCLINATION": 98.6823, "RA_OF_ASC_NODE": 355.785, "ARG_OF_PERICENTER": 247.82, "MEAN_ANOMALY": 167.2755, "EPHEMERIS_TYPE": 0, "CLASSIFICATION_TYPE": "U", "NORAD_CAT_ID": 30356, "ELEMENT_SET_NO": 999, "REV_AT_EPOCH": 97222, "BSTAR": 0.00073007361, "MEAN_MOTION_DOT": 1.338e-05, "MEAN_MOTION_DDOT": 0}, "tle": {"line1": "1 30356U 99025ABT 25360.97324611  .00001338  00000+0  73007-3 0  9995", "line2": "2 30356  98.6823 355.7850 0052039 247.8200 167.2755 14.13071408972224"}}, "geometry": {"type": "Point", "coordinates": [-148.8042754702447, 75.1518464518141]}}, {"type": "Feature", "properties": {"norad_id": 30357, "name": "FENGYUN 1C DEB", "group": "fengyun-1c-debris", "lat": -62.572595975792005, "lon": -169.3527891175704, "alt_km": 857.7905595072525, "timestamp": "2025-12-27T04:40:45.781442+00:00", "meta": {"OBJECT_NAME": "FENGYUN 1C DEB", "OBJECT_ID": "1999-025ABU", "EPOCH": "2025-12-26T19:49:20.993952", "MEAN_MOTION": 14.0526978, "ECCENTRICITY": 0.00485099, "INCLINATION": 98.805, "RA_OF_ASC_NODE": 27.6664, "ARG_OF_PERICENTER": 289.9277, "MEAN_ANOMALY": 248.4174, "EPHEMERIS_TYPE": 0, "CLASSIFICATION_TYPE": "U", "NORAD_CAT_ID": 30357, "ELEMENT_SET_NO": 999, "REV_AT_EPOCH": 97004, "BSTAR": 0.00027028138, "MEAN_MOTION_DOT": 3.99e-06, "MEAN_MOTION_DDOT": 0}, "tle": {"line1": "1 30357U 99025ABU 25360.82593743  .00000399  00000+0  27028-3 0  9992", "line2": "2 30357  98.8050  27.6664 0048509 289.9277 248.4174 14.05269780970043"}}, "geometry": {"type": "Point", "coordinates": [-169.3527891175704, -62.572595975792005]}}]}